NORAD_CAT_ID,OBJECT_NAME,OBJECT_TYPE,EPOCH,MEAN_MOTION,ECCENTRICITY,INCLINATION,RA_OF_ASC_NODE,ARG_OF_PERICENTER,MEAN_ANOMALY,BSTAR,MEAN_MOTION_DOT,MEAN_MOTION_DDOT,TLE_LINE0,TLE_LINE1,TLE_LINE2,SEMIMAJOR_AXIS,PERIOD,APOGEE,PERIGEE,DECAYED
52868.0,STARLINK-4261,PAYLOAD,2024-05-17 06:02:44,15.08843559,0.0001496,53.2157,113.4594,111.9775,248.1376,-0.00011583,-2.131e-05,0.0,0 STARLINK-4261,1 52868U 22062AQ  24138.25190907 -.00002131  00000-0 -11583-3 0  9992,2 52868  53.2157 113.4594 0001496 111.9775 248.1376 15.08843559106075,6917.87,95.437,540.769,538.7,0.0
52868.0,STARLINK-4261,PAYLOAD,2024-05-17 15:35:03,15.08854712,0.0001263,53.2155,111.6727,103.0334,257.0799,0.000163,2.308e-05,0.0,0 STARLINK-4261,1 52868U 22062AQ  24138.64934354  .00002308  00000-0  16300-3 0  9993,2 52868  53.2155 111.6727 0001263 103.0334 257.0799 15.08854712106628,6917.835,95.437,540.574,538.827,0.0
52868.0,STARLINK-4261,PAYLOAD,2024-05-18 04:18:08,15.08840478,0.0001356,53.215,109.2915,107.9595,252.1545,4.1987e-05,3.8e-06,0.0,0 STARLINK-4261,1 52868U 22062AQ  24139.17926870  .00000380  00000-0  41987-4 0  9994,2 52868  53.2150 109.2915 0001356 107.9595 252.1545 15.08840478106708,6917.879,95.438,540.682,538.806,0.0
52868.0,STARLINK-4261,PAYLOAD,2024-05-18 07:28:55,15.08843856,0.0001426,53.2152,108.6964,109.3473,250.7673,0.00033153,4.993e-05,0.0,0 STARLINK-4261,1 52868U 22062AQ  24139.31174849  .00004993  00000-0  33153-3 0  9990,2 52868  53.2152 108.6964 0001426 109.3473 250.7673 15.08843856106233,6917.869,95.437,540.72,538.747,0.0
52868.0,STARLINK-4261,PAYLOAD,2024-05-18 15:25:50,15.08858954,0.0001423,53.2157,107.2099,111.5854,248.529,0.0008089,0.00012616,0.0,0 STARLINK-4261,1 52868U 22062AQ  24139.64294445  .00012616  00000-0  80890-3 0  9992,2 52868  53.2157 107.2099 0001423 111.5854 248.5290 15.08858954106771,6917.822,95.436,540.672,538.703,0.0
52868.0,STARLINK-4261,PAYLOAD,2024-05-19 04:08:56,15.08823353,0.000144,53.2158,104.833,91.647,268.4687,6.1105e-05,6.84e-06,0.0,0 STARLINK-4261,1 52868U 22062AQ  24140.17287600  .00000684  00000-0  61105-4 0  9998,2 52868  53.2158 104.8330 0001440  91.6470 268.4687 15.08823353106859,6917.931,95.439,540.792,538.8,0.0
52868.0,STARLINK-4261,PAYLOAD,2024-05-19 07:19:42,15.08823093,0.0001486,53.216,104.2375,94.3081,265.8081,0.00015988,2.256e-05,0.0,0 STARLINK-4261,1 52868U 22062AQ  24140.30535794  .00002256  00000-0  15988-3 0  9997,2 52868  53.2160 104.2375 0001486  94.3081 265.8081 15.08823093106381,6917.932,95.439,540.825,538.769,0.0
52868.0,STARLINK-4261,PAYLOAD,2024-05-20 03:59:43,15.08853354,0.0001421,53.2161,100.3727,89.7234,270.3921,0.0011509,0.00018083,0.0,0 STARLINK-4261,1 52868U 22062AQ  24141.16647960  .00018083  00000-0  11509-2 0  9990,2 52868  53.2161 100.3727 0001421  89.7234 270.3921 15.08853354107004,6917.84,95.437,540.688,538.722,0.0
52868.0,STARLINK-4261,PAYLOAD,2024-05-21 03:50:30,15.08845612,0.0001115,53.2156,95.913,100.4918,259.62,0.00033038,4.975e-05,0.0,0 STARLINK-4261,1 52868U 22062AQ  24142.16007926  .00004975  00000-0  33038-3 0  9990,2 52868  53.2156  95.9130 0001115 100.4918 259.6200 15.08845612107159,6917.863,95.437,540.5,538.957,0.0
52868.0,STARLINK-4261,PAYLOAD,2024-05-21 07:01:17,15.08842454,0.0001124,53.2158,95.3197,93.9734,266.1387,0.00023085,3.388e-05,0.0,0 STARLINK-4261,1 52868U 22062AQ  24142.29256016  .00003388  00000-0  23085-3 0  9998,2 52868  53.2158  95.3197 0001124  93.9734 266.1387 15.08842454106687,6917.873,95.437,540.515,538.96,0.0
52868.0,STARLINK-4261,PAYLOAD,2024-05-21 21:19:45,15.08837211,0.0001217,53.216,92.6426,101.6312,258.4817,9.9525e-05,1.296e-05,0.0,0 STARLINK-4261,1 52868U 22062AQ  24142.88872272  .00001296  00000-0  99525-4 0  9990,2 52868  53.2160  92.6426 0001217 101.6312 258.4817 15.08837211107269,6917.889,95.438,540.596,538.912,0.0
52868.0,STARLINK-4261,PAYLOAD,2024-05-22 06:52:04,15.0884365,0.0001398,53.2168,90.8573,103.8886,256.2261,7.4869e-05,9.04e-06,0.0,0 STARLINK-4261,1 52868U 22062AQ  24143.28615935  .00000904  00000-0  74869-4 0  9995,2 52868  53.2168  90.8573 0001398 103.8886 256.2261 15.08843650106835,6917.869,95.437,540.701,538.767,0.0
52868.0,STARLINK-4261,PAYLOAD,2024-05-23 05:07:28,15.08833067,0.0001389,53.2181,86.6918,105.647,254.4676,0.00011082,1.476e-05,0.0,0 STARLINK-4261,1 52868U 22062AQ  24144.21352841  .00001476  00000-0  11082-3 0  9995,2 52868  53.2181  86.6918 0001389 105.6470 254.4676 15.08833067107466,6917.902,95.438,540.727,538.806,0.0
52868.0,STARLINK-4261,PAYLOAD,2024-05-23 06:42:52,15.0883296,0.0001346,53.218,86.3982,98.7378,261.3766,0.00012377,1.682e-05,0.0,0 STARLINK-4261,1 52868U 22062AQ  24144.27976902  .00001682  00000-0  12377-3 0  9998,2 52868  53.2180  86.3982 0001346  98.7378 261.3766 15.08832960106989,6917.902,95.438,540.698,538.836,0.0
52868.0,STARLINK-4261,PAYLOAD,2024-05-24 04:58:15,15.08848509,0.000137,53.2182,82.233,87.349,272.7659,0.00019575,2.83e-05,0.0,0 STARLINK-4261,1 52868U 22062AQ  24145.20711922  .00002830  00000-0  19575-3 0  9994,2 52868  53.2182  82.2330 0001370  87.3490 272.7659 15.08848509107613,6917.854,95.437,540.667,538.772,0.0
52868.0,STARLINK-4261,PAYLOAD,2024-05-24 19:16:43,15.08837809,0.0001339,53.2168,79.5593,104.3779,255.7362,6.2924e-05,7.14e-06,0.0,0 STARLINK-4261,1 52868U 22062AQ  24145.80328535  .00000714  00000-0  62924-4 0  9990,2 52868  53.2168  79.5593 0001339 104.3779 255.7362 15.08837809107705,6917.887,95.438,540.678,538.826,0.0
52868.0,STARLINK-4261,PAYLOAD,2024-05-25 12:45:58,15.08841353,0.0001181,53.2174,76.2892,81.8092,278.3034,0.0001036,1.361e-05,0.0,0 STARLINK-4261,1 52868U 22062AQ  24146.53192669  .00001361  00000-0  10360-3 0  9993,2 52868  53.2174  76.2892 0001181  81.8092 278.3034 15.08841353107324,6917.876,95.437,540.558,538.924,0.0
52868.0,STARLINK-4261,PAYLOAD,2024-05-26 01:29:03,15.08835012,0.0001125,53.2168,73.9105,98.6512,261.4608,-7.9284e-05,-1.549e-05,0.0,0 STARLINK-4261,1 52868U 22062AQ  24147.06185174 -.00001549  00000-0 -79284-4 0  9996,2 52868  53.2168  73.9105 0001125  98.6512 261.4608 15.08835012107896,6917.896,95.438,540.539,538.982,0.0
52868.0,STARLINK-4261,PAYLOAD,2024-05-27 04:30:37,15.0884399,0.0001257,53.2162,68.8567,93.3579,266.7557,0.00033903,5.112e-05,0.0,0 STARLINK-4261,1 52868U 22062AQ  24148.18792983  .00005112  00000-0  33903-3 0  9997,2 52868  53.2162  68.8567 0001257  93.3579 266.7557 15.08843990108061,6917.868,95.437,540.603,538.864,0.0
52868.0,STARLINK-4261,PAYLOAD,2024-05-27 21:59:50,15.08856348,0.0001202,53.2168,65.5838,99.8971,260.2156,0.00022821,3.348e-05,0.0,0 STARLINK-4261,1 52868U 22062AQ  24148.91655836  .00003348  00000-0  22821-3 0  9999,2 52868  53.2168  65.5838 0001202  99.8971 260.2156 15.08856348107681,6917.83,95.437,540.527,538.864,0.0
52868.0,STARLINK-4261,PAYLOAD,2024-05-28 04:21:22,15.08859858,0.0001188,53.2171,64.3936,102.203,257.9095,0.00025188,3.725e-05,0.0,0 STARLINK-4261,1 52868U 22062AQ  24149.18151414  .00003725  00000-0  25188-3 0  9990,2 52868  53.2171  64.3936 0001188 102.2030 257.9095 15.08859858108213,6917.82,95.436,540.507,538.863,0.0
52868.0,STARLINK-4261,PAYLOAD,2024-05-28 21:50:37,15.08843257,0.0001291,53.2168,61.1156,103.5097,256.6039,-5.4063e-05,-1.148e-05,0.0,0 STARLINK-4261,1 52868U 22062AQ  24149.91015828 -.00001148  00000-0 -54063-4 0  9993,2 52868  53.2168  61.1156 0001291 103.5097 256.6039 15.08843257107837,6917.87,95.437,540.629,538.842,0.0
52868.0,STARLINK-4261,PAYLOAD,2024-05-29 01:01:24,15.08837642,0.0001078,53.2162,60.5221,89.7137,270.3979,-0.00012657,-2.301e-05,0.0,0 STARLINK-4261,1 52868U 22062AQ  24150.04264223 -.00002301  00000-0 -12657-3 0  9998,2 52868  53.2162  60.5221 0001078  89.7137 270.3979 15.08837642108344,6917.888,95.438,540.498,539.007,0.0
52868.0,STARLINK-4261,PAYLOAD,2024-05-29 21:41:25,15.08839074,0.0001164,53.2184,56.6669,90.2683,269.8443,-5.8021e-05,-1.211e-05,0.0,0 STARLINK-4261,1 52868U 22062AQ  24150.90377117 -.00001211  00000-0 -58021-4 0  9995,2 52868  53.2184  56.6669 0001164  90.2683 269.8443 15.08839074107988,6917.883,95.438,540.553,538.943,0.0
52868.0,STARLINK-4261,PAYLOAD,2024-05-30 02:27:34,15.08845282,0.0001214,53.2185,55.776,89.6837,270.4294,-1.1331e-06,-3.06e-06,0.0,0 STARLINK-4261,1 52868U 22062AQ  24151.10248572 -.00000306  00000-0 -11331-5 0  9998,2 52868  53.2185  55.7760 0001214  89.6837 270.4294 15.08845282108509,6917.864,95.437,540.569,538.889,0.0
52868.0,STARLINK-4261,PAYLOAD,2024-05-30 21:32:12,15.08835067,0.0001434,53.219,52.2054,96.6418,263.4737,0.00024769,3.656e-05,0.0,0 STARLINK-4261,1 52868U 22062AQ  24151.89737133  .00003656  00000-0  24769-3 0  9996,2 52868  53.2190  52.2054 0001434  96.6418 263.4737 15.08835067108133,6917.895,95.438,540.752,538.768,0.0
52868.0,STARLINK-4261,PAYLOAD,2024-05-31 02:18:22,15.08840174,0.0001442,53.218,51.3115,91.8547,268.261,0.00030316,4.54e-05,0.0,0 STARLINK-4261,1 52868U 22062AQ  24152.09609145  .00004540  00000-0  30316-3 0  9998,2 52868  53.2180  51.3115 0001442  91.8547 268.2610 15.08840174108654,6917.88,95.438,540.742,538.747,0.0
52868.0,STARLINK-4261,PAYLOAD,2024-05-31 21:22:59,15.08838705,0.0001608,53.2187,47.7441,87.331,272.7866,0.00010583,1.397e-05,0.0,0 STARLINK-4261,1 52868U 22062AQ  24152.89097202  .00001397  00000-0  10583-3 0  9992,2 52868  53.2187  47.7441 0001608  87.3310 272.7866 15.08838705108283,6917.884,95.438,540.862,538.637,0.0
52868.0,STARLINK-4261,PAYLOAD,2024-06-01 10:06:04,15.08851229,0.0001431,53.2173,45.3641,88.8372,271.2784,0.00061921,9.583e-05,0.0,0 STARLINK-4261,1 52868U 22062AQ  24153.42088835  .00009583  00000-0  61921-3 0  9991,2 52868  53.2173  45.3641 0001431  88.8372 271.2784 15.08851229108854,6917.846,95.437,540.701,538.721,0.0
52868.0,STARLINK-4261,PAYLOAD,2024-06-01 21:13:47,15.08837987,0.0001673,53.2174,43.2802,101.3869,258.7312,0.00043157,6.587e-05,0.0,0 STARLINK-4261,1 52868U 22062AQ  24153.88457243  .00006587  00000-0  43157-3 0  9996,2 52868  53.2174  43.2802 0001673 101.3869 258.7312 15.08837987108921,6917.887,95.438,540.909,538.594,0.0
